{
    "argument_of_periapsis": -85.10477129,
    "ascending_node_longitude": 131.78635853,
    "direction": "CW",
    "eccentricity": 0.00867797,
    "inclination": 1.77005520,
    "mass": 1.0243E26,
    "name": "neptune",
    "parent": "sun",
    "semimajor": 4498542600E3,
    "start": "periapsis"
}
